     2.10           G: GLONASS NAV DATA                     RINEX VERSION / TYPE
teqc  2015Jun23                         20210825 01:25:48UTCPGM / RUN BY / DATE
Linux 2.4.21-27.ELsmp|Opteron|gcc -static|Linux x86_64|=+   COMMENT
  2021     8     1   -3.259629011154D-09                    CORR TO SYSTEM TIME
                                                            END OF HEADER
 7 21  8  2  8 45  0.0-4.179123789072D-05 0.000000000000D+00 3.060000000000D+04
    5.136574218750D+03-1.331703186035D+00 9.313225746155D-10 0.000000000000D+00
    1.877201464844D+04-1.825846672058D+00-0.000000000000D+00 5.000000000000D+00
    1.655147070312D+04 2.485428810120D+00-9.313225746155D-10 0.000000000000D+00
 8 21  8  2  8 45  0.0-6.015039980412D-05 0.000000000000D+00 3.060000000000D+04
    1.551059033203D+04 4.195213317871D-03 9.313225746155D-10 0.000000000000D+00
    2.021284716797D+04-2.593050003052D-01-0.000000000000D+00 6.000000000000D+00
    1.506628417969D+03 3.562224388123D+00 9.313225746155D-10 0.000000000000D+00
 9 21  8  2  8 45  0.0 6.018206477165D-06 2.728484105319D-12 3.060000000000D+04
   -2.148504492188D+04-1.388724327087D+00-2.793967723846D-09 0.000000000000D+00
    9.032762695312D+03 3.518247604370D-01 0.000000000000D+00-2.000000000000D+00
   -1.043370947266D+04 3.150509834290D+00-9.313225746155D-10 0.000000000000D+00
20 21  8  2  8 45  0.0-5.345884710550D-05-0.000000000000D+00 3.060000000000D+04
   -1.362864306641D+04 9.163579940796D-01-1.862645149231D-09 0.000000000000D+00
    1.682401318359D+04-1.624148368835D+00 0.000000000000D+00 2.000000000000D+00
   -1.351456250000D+04-2.942441940308D+00-0.000000000000D+00 0.000000000000D+00
22 21  8  2  8 45  0.0-1.257732510567D-04-9.094947017729D-13 3.177000000000D+04
    2.643480957031D+03-8.425188064575D-01 9.313225746155D-10 0.000000000000D+00
    1.656460644531D+04 2.505342483521D+00-0.000000000000D+00-3.000000000000D+00
    1.923188916016D+04-2.031655311584D+00-9.313225746155D-10 0.000000000000D+00
21 21  8  2  9 15  0.0-2.284357324243D-04-2.728484105319D-12 3.240000000000D+04
   -6.459894042969D+03 2.578659057617D-01-9.313225746155D-10 0.000000000000D+00
    2.464217187500D+04-6.571674346924D-02 0.000000000000D+00 4.000000000000D+00
   -9.188105468750D+02-3.604308128357D+00-0.000000000000D+00 0.000000000000D+00
10 21  8  2  9 15  0.0-7.351394742727D-05-0.000000000000D+00 3.240000000000D+04
   -1.186058056641D+04-2.382683753967D+00-2.793967723846D-09 0.000000000000D+00
    1.299516308594D+04 8.470001220703D-01 0.000000000000D+00-7.000000000000D+00
   -1.844103173828D+04 2.135324478149D+00 0.000000000000D+00 0.000000000000D+00
 8 21  8  2  9 15  0.0-6.015039980412D-05 0.000000000000D+00 3.240000000000D+04
    1.494121582031D+04-6.589736938477D-01 9.313225746155D-10 0.000000000000D+00
    1.919166308594D+04-8.402948379517D-01-0.000000000000D+00 6.000000000000D+00
    7.777856445312D+03 3.360714912415D+00 0.000000000000D+00 0.000000000000D+00
 7 21  8  2  9 15  0.0-4.178937524557D-05 0.000000000000D+00 3.240000000000D+04
    2.164124023438D+03-1.960436820984D+00 9.313225746155D-10 0.000000000000D+00
    1.531974169922D+04-1.963117599487D+00-0.000000000000D+00 5.000000000000D+00
    2.033092480469D+04 1.686842918396D+00-1.862645149231D-09 0.000000000000D+00
 9 21  8  2  9 15  0.0 6.022863090038D-06 2.728484105319D-12 3.240000000000D+04
   -2.323222265625D+04-5.455293655396D-01-1.862645149231D-09 0.000000000000D+00
    9.649854492188D+03 2.934370040894D-01 0.000000000000D+00-2.000000000000D+00
   -4.433822265625D+03 3.472846031189D+00-9.313225746155D-10 0.000000000000D+00
20 21  8  2  9 15  0.0-5.345884710550D-05-0.000000000000D+00 3.240000000000D+04
   -1.202873486328D+04 8.198289871216D-01-2.793967723846D-09 0.000000000000D+00
    1.321120849609D+04-2.365611076355D+00 0.000000000000D+00 2.000000000000D+00
   -1.822101611328D+04-2.253006935120D+00 0.000000000000D+00 0.000000000000D+00
22 21  8  2  9 15  0.0-1.257769763470D-04-9.094947017729D-13 3.240000000000D+04
    1.619589843750D+03-3.103618621826D-01 0.000000000000D+00 0.000000000000D+00
    2.068555126953D+04 2.027225494385D+00-0.000000000000D+00-3.000000000000D+00
    1.487999316406D+04-2.772272109985D+00-9.313225746155D-10 0.000000000000D+00
21 21  8  2  9 45  0.0-2.284413203597D-04-2.728484105319D-12 3.420000000000D+04
   -5.891766113281D+03 3.305292129517D-01-1.862645149231D-09 0.000000000000D+00
    2.370914111328D+04-9.688577651978D-01 0.000000000000D+00 4.000000000000D+00
   -7.286983398438D+03-3.425411224365D+00-0.000000000000D+00 0.000000000000D+00
10 21  8  2  9 45  0.0-7.351581007242D-05-0.000000000000D+00 3.420000000000D+04
   -1.553812500000D+04-1.679549217224D+00-2.793967723846D-09 0.000000000000D+00
    1.461918505859D+04 9.173517227173D-01 9.313225746155D-10-7.000000000000D+00
   -1.393244824219D+04 2.841701507568D+00-0.000000000000D+00 0.000000000000D+00
 7 21  8  2  9 45  0.0-4.178844392300D-05 0.000000000000D+00 3.420000000000D+04
   -1.850286132812D+03-2.471821784973D+00 9.313225746155D-10 0.000000000000D+00
    1.186691113281D+04-1.831652641296D+00-0.000000000000D+00 5.000000000000D+00
    2.254597607422D+04 7.583761215210D-01-1.862645149231D-09 0.000000000000D+00
 8 21  8  2  9 45  0.0-6.014946848154D-05 0.000000000000D+00 3.420000000000D+04
    1.308915136719D+04-1.403446197510D+00 9.313225746155D-10 0.000000000000D+00
    1.733128417969D+04-1.183534622192D+00-9.313225746155D-10 6.000000000000D+00
    1.344964843750D+04 2.900609016418D+00-0.000000000000D+00 0.000000000000D+00
 9 21  8  2  9 45  0.0 6.026588380337D-06 2.728484105319D-12 3.420000000000D+04
   -2.345790869141D+04 2.829008102417D-01-1.862645149231D-09 0.000000000000D+00
    9.945433593750D+03-2.978324890137D-03 9.313225746155D-10-2.000000000000D+00
    1.907561035156D+03 3.527579307556D+00-1.862645149231D-09 0.000000000000D+00
20 21  8  2  9 45  0.0-5.345977842808D-05-0.000000000000D+00 3.420000000000D+04
   -1.080951025391D+04 5.041770935059D-01-2.793967723846D-09 0.000000000000D+00
    8.426800292969D+03-2.909724235535D+00 9.313225746155D-10 2.000000000000D+00
   -2.152055322266D+04-1.389301300049D+00 0.000000000000D+00 0.000000000000D+00
22 21  8  2  9 45  0.0-1.257788389921D-04-9.094947017729D-13 3.420000000000D+04
    1.441906738281D+03 8.227920532227D-02-0.000000000000D+00 0.000000000000D+00
    2.371584667969D+04 1.305780410767D+00-0.000000000000D+00-3.000000000000D+00
    9.380805175781D+03-3.298290252686D+00-9.313225746155D-10 0.000000000000D+00
21 21  8  2 10 15  0.0-2.284459769726D-04-2.728484105319D-12 3.600000000000D+04
   -5.420331054688D+03 1.541738510132D-01-1.862645149231D-09 0.000000000000D+00
    2.119828515625D+04-1.799016952515D+00 9.313225746155D-10 4.000000000000D+00
   -1.309076269531D+04-2.981328964233D+00-0.000000000000D+00 0.000000000000D+00
10 21  8  2 10 15  0.0-7.351674139500D-05-0.000000000000D+00 3.600000000000D+04
   -1.785402832031D+04-8.885602951050D-01-1.862645149231D-09 0.000000000000D+00
    1.614456689453D+04 7.341108322144D-01 9.313225746155D-10-7.000000000000D+00
   -8.343218750000D+03 3.328135490417D+00-9.313225746155D-10 0.000000000000D+00
 8 21  8  2 10 15  0.0-6.014946848154D-05 0.000000000000D+00 3.600000000000D+04
    9.906588867188D+03-2.118313789368D+00 9.313225746155D-10 0.000000000000D+00
    1.509078369141D+04-1.261902809143D+00-9.313225746155D-10 6.000000000000D+00
    1.808612304688D+04 2.217855453491D+00-9.313225746155D-10 0.000000000000D+00
 9 21  8  2 10 15  0.0 6.031244993210D-06 2.728484105319D-12 3.600000000000D+04
   -2.228774560547D+04 9.888019561768D-01-9.313225746155D-10 0.000000000000D+00
    9.517076171875D+03-5.015382766724D-01 9.313225746155D-10-2.000000000000D+00
    8.102188964844D+03 3.310881614685D+00-1.862645149231D-09 0.000000000000D+00
22 21  8  2 10 15  0.0-1.257816329598D-04-9.094947017729D-13 3.600000000000D+04
    1.785645507812D+03 2.593698501587D-01-9.313225746155D-10 0.000000000000D+00
    2.529417626953D+04 4.314975738525D-01 0.000000000000D+00-3.000000000000D+00
    3.159194824219D+03-3.569885253906D+00-9.313225746155D-10 0.000000000000D+00
23 21  8  2 10 15  0.0-1.073349267244D-05-9.094947017729D-13 3.732000000000D+04
    9.414110839844D+03 1.579008102417D-01 9.313225746155D-10 0.000000000000D+00
    1.158002490234D+04 2.836725234985D+00-9.313225746155D-10 3.000000000000D+00
    2.067092968750D+04-1.660260200500D+00-9.313225746155D-10 0.000000000000D+00
21 21  8  2 10 45  0.0-2.284515649080D-04-2.728484105319D-12 3.780000000000D+04
   -5.460204101562D+03-2.266683578491D-01-1.862645149231D-09 0.000000000000D+00
    1.734324023438D+04-2.445864677429D+00 9.313225746155D-10 4.000000000000D+00
   -1.788111328125D+04-2.306755065918D+00 0.000000000000D+00 0.000000000000D+00
10 21  8  2 10 45  0.0-7.351860404015D-05-0.000000000000D+00 3.780000000000D+04
   -1.875326611328D+04-1.245002746582D-01-1.862645149231D-09 0.000000000000D+00
    1.711085351562D+04 3.005046844482D-01 9.313225746155D-10-7.000000000000D+00
   -2.106448242188D+03 3.556437492371D+00-1.862645149231D-09 0.000000000000D+00
 8 21  8  2 10 45  0.0-6.014853715897D-05 0.000000000000D+00 3.780000000000D+04
    5.547465332031D+03-2.693408012390D+00 9.313225746155D-10 0.000000000000D+00
    1.293735302734D+04-1.093482017517D+00-0.000000000000D+00 6.000000000000D+00
    2.133168603516D+04 1.365125656128D+00-1.862645149231D-09 0.000000000000D+00
 9 21  8  2 10 45  0.0 6.035901606083D-06 2.728484105319D-12 3.780000000000D+04
   -2.002394726562D+04 1.486362457275D+00-0.000000000000D+00 0.000000000000D+00
    8.062218261719D+03-1.128684997559D+00 0.000000000000D+00-2.000000000000D+00
    1.367356005859D+04 2.839541435242D+00-2.793967723846D-09 0.000000000000D+00
22 21  8  2 10 45  0.0-1.257834956050D-04-9.094947017729D-13 3.780000000000D+04
    2.223798828125D+03 1.849575042725D-01-9.313225746155D-10 0.000000000000D+00
    2.524590527344D+04-4.814863204956D-01 0.000000000000D+00-3.000000000000D+00
   -3.305513183594D+03-3.566735267639D+00-0.000000000000D+00 0.000000000000D+00
